AMC-1 (GE-1)            
1 24315U 96054A   23185.56614851 -.00000285  00000+0  00000+0 0  9998
2 24315   6.5250  69.7998 0001749 169.1613  40.3993  0.99511063 98202
AMC-3 (GE-3)            
1 24936U 97050A   23185.19112859 -.00000261  00000+0  00000+0 0  9998
2 24936   5.4815  75.7981 0003111  27.8108 175.1322  1.00270992 94620
ASTRA 1G                
1 25071U 97076A   23185.16646535 -.00000124  00000+0  00000+0 0  9995
2 25071   6.9955  64.2943 0008834  88.8472 117.8812  0.99036114 93710
ASTRA 2A                
1 25462U 98050A   23185.30743837  .00000069  00000+0  00000+0 0  9998
2 25462   4.3621  81.4330 0003411  15.5507 352.9294  1.00271843 90928
NSS-11 (AAP-1)          
1 26554U 00059A   23186.44390547  .00000025  00000+0  00000+0 0  9997
2 26554   0.0153 342.5530 0002614 125.1060 151.3129  1.00271959 83369
AMC-6 (GE-6)            
1 26580U 00067A   23185.53286948  .00000108  00000+0  00000+0 0  9995
2 26580   0.0212 325.4534 0002760 139.8216 229.8222  1.00271235 83165
ASTRA 2C                
1 26853U 01025A   23185.23452300 -.00000260  00000+0  00000+0 0  9997
2 26853   5.5040  75.6129 0003123  16.3627 201.9639  1.00272270 80755
NSS-7                   
1 27414U 02019A   23185.41655889 -.00000160  00000+0  00000+0 0  9991
2 27414   6.7938  68.0553 0002264  33.3159 310.7364  1.00271604 77748
NSS-6                   
1 27603U 02057A   23185.58987576  .00000108  00000+0  00000+0 0  9993
2 27603   2.5807  87.2321 0003564  12.4051 225.5275  1.00272826 75228
AMC-11 (GE-11)          
1 28252U 04017A   23185.97177612 -.00000048  00000+0  00000+0 0  9991
2 28252   0.0157  26.7284 0001427  88.6526  46.0681  1.00272064 69891
AMC-15                  
1 28446U 04041A   23186.45982955 -.00000089  00000+0  00000+0 0  9996
2 28446   0.0241 330.0442 0002929 123.7365 249.8892  1.00270961 68549
NSS-10 (AMC-12)         
1 28526U 05003A   23185.48478012 -.00000251  00000+0  00000+0 0  9991
2 28526   3.7361  83.1975 0003271   7.1246 328.9665  1.00272043 67507
ASTRA 1KR               
1 29055U 06012A   23186.35608875  .00000119  00000+0  00000+0 0  9991
2 29055   0.0563 276.1365 0002086 229.7894 284.5394  1.00267513 62934
AMC-18                  
1 29644U 06054B   23185.54733635 -.00000212  00000+0  00000+0 0  9999
2 29644   0.0120 355.9566 0002383 106.6582 293.7098  1.00267805 60714
ASTRA 1L                
1 31306U 07016A   23185.49602439  .00000123  00000+0  00000+0 0  9997
2 31306   0.0706 307.7979 0001741 109.6762  62.5207  1.00269812 59223
ASTRA 4A (SIRIUS 4)     
1 32299U 07057A   23185.37549170  .00000036  00000+0  00000+0 0  9996
2 32299   0.0092  19.8097 0002948  81.4636 320.8217  1.00272200 57147
AMC-21                  
1 33275U 08038B   23185.49960316  .00000040  00000+0  00000+0 0  9998
2 33275   0.1573  98.4282 0003509  10.4930 228.2710  1.00270772 54653
ASTRA 1M                
1 33436U 08057A   23186.02798627  .00000121  00000+0  00000+0 0  9992
2 33436   0.0173  31.7965 0005651  94.9392 185.3068  1.00274761 53665
CIEL-2                  
1 33453U 08063A   23185.49704193  .00000062  00000+0  00000+0 0  9997
2 33453   0.0276 100.5503 0003316 357.5799 234.1850  1.00269559 53319
NSS-9                   
1 33749U 09008A   23186.44816208  .00000071  00000+0  00000+0 0  9992
2 33749   0.0265 323.2668 0002388 132.4438 171.8761  1.00269973 52754
SES-7 (PROTOSTAR 2)     
1 34941U 09027A   23185.67536898 -.00000342  00000+0  00000+0 0  9998
2 34941   0.0284  65.3336 0001068 107.2533 101.2083  1.00271123 51793
NSS-12                  
1 36032U 09058A   23185.50351370  .00000075  00000+0  00000+0 0  9999
2 36032   0.0186 328.0185 0003038 130.4342  62.0406  1.00270311 50096
SES-1                   
1 36516U 10016A   23185.97378091 -.00000113  00000+0  00000+0 0  9996
2 36516   0.0422 296.7943 0002963 158.1333  77.3375  1.00272463 48329
ASTRA 3B                
1 36581U 10021A   23186.35687323  .00000137  00000+0  00000+0 0  9993
2 36581   0.0446 356.1977 0004379 101.3832 337.4700  1.00270231 47841
SES-3                   
1 37748U 11035A   23185.51238720 -.00000098  00000+0  00000+0 0  9992
2 37748   0.0203 345.6920 0003187 110.5344 267.4845  1.00271041 43887
ASTRA 1N                
1 37775U 11041A   23185.49602439  .00000123  00000+0  00000+0 0  9996
2 37775   0.0472   7.8498 0004997  69.1792  42.9796  1.00272738 43580
SES-2                   
1 37809U 11049A   23185.47484333 -.00000192  00000+0  00000+0 0  9998
2 37809   0.0212 326.4270 0002767 138.1819 261.5545  1.00271516 43188
QUETZSAT 1              
1 37826U 11054A   23185.47684812 -.00000238  00000+0  00000+0 0  9998
2 37826   0.0122  24.4771 0002403  86.0911 266.3074  1.00272807 43284
SES-4                   
1 38087U 12007A   23186.34789524 -.00000169  00000+0  00000+0 0  9993
2 38087   0.0245  49.1452 0002260  53.3165 283.8451  1.00269828 41683
SES-5                   
1 38652U 12036A   23185.63649545  .00000036  00000+0  00000+0 0  9994
2 38652   0.0496 301.6317 0002219 159.6845  55.1780  1.00270966 40256
ASTRA 2F                
1 38778U 12051A   23185.99955556  .00000151  00000+0  00000+0 0  9999
2 38778   0.0782 247.5475 0002030 277.3855 145.8038  1.00268901 39488
SES-6                   
1 39172U 13026A   23185.48408280 -.00000258  00000+0  00000+0 0  9991
2 39172   0.0188 347.5245 0002639 112.8827 315.5945  1.00270873 36908
O3B FM5                 
1 39188U 13031A   23183.26934771 -.00000011  00000+0  00000+0 0  9994
2 39188   0.0482 344.4130 0003043 116.9204 258.7015  5.00115560183055
O3B FM4                 
1 39189U 13031B   23184.72431759 -.00000014  00000+0  00000+0 0  9998
2 39189   0.0467  18.3044 0002989  84.3084 257.4202  5.00116039183148
O3B FM2                 
1 39190U 13031C   23184.61624130 -.00000014  00000+0  00000+0 0  9995
2 39190   0.0473  24.3958 0002859  77.0849 258.5510  5.00115255183099
O3B PFM                 
1 39191U 13031D   23182.84315537 -.00000011  00000+0  00000+0 0  9994
2 39191   0.0474 355.1300 0002646 102.5039 262.3971  5.00115958183023
ASTRA 2E                
1 39285U 13056A   23185.99955556  .00000151  00000+0  00000+0 0  9999
2 39285   0.0571 347.1723 0002551 104.1271 219.7528  1.00268848 35771
SES-8                   
1 39460U 13071A   23186.04146352 -.00000268  00000+0  00000+0 0  9994
2 39460   0.0503 256.9282 0003117 208.9438 286.8206  1.00269503 35064
ASTRA 5B                
1 39617U 14011B   23186.28684906  .00000155  00000+0  00000+0 0  9995
2 39617   0.0802 300.1334 0005051 187.5995 290.0457  1.00272627 34064
O3B FM3                 
1 40079U 14038A   23185.69611491 -.00000015  00000+0  00000+0 0  9997
2 40079   0.0448   9.0029 0001556  29.6248 321.3821  5.00116628164185
O3B FM7                 
1 40080U 14038B   23184.84305841 -.00000014  00000+0  00000+0 0  9993
2 40080   0.0418  13.3644 0004396  96.4896 250.1929  5.00115779164163
O3B FM6                 
1 40081U 14038C   23186.06895044 -.00000016  00000+0  00000+0 0  9991
2 40081   0.0457   9.7918 0002717  90.9094 259.3279  5.00115243164226
O3B FM8                 
1 40082U 14038D   23184.32359440 -.00000013  00000+0  00000+0 0  9991
2 40082   0.0471  13.3147 0002575  87.9775 258.7365  5.00115893164110
O3B FM10                
1 40348U 14083A   23182.15117429 -.00000010  00000+0  00000+0 0  9991
2 40348   0.0501   0.3222 0002685  98.2912 261.4183  5.00115249155933
O3B FM11                
1 40349U 14083B   23185.36275972 -.00000015  00000+0  00000+0 0  9991
2 40349   0.0454 358.4429 0003380 101.1489 260.4454  5.00115456156091
O3B FM12                
1 40350U 14083C   23185.78980454 -.00000016  00000+0  00000+0 0  9998
2 40350   0.0457 359.5678 0002792  98.6908 261.7718  5.00115382156114
O3B FM9                 
1 40351U 14083D   23184.61689569 -.00000014  00000+0  00000+0 0  9991
2 40351   0.0445 357.5429 0002753 103.1768 259.3109  5.00116099156064
ASTRA 2G                
1 40364U 14089A   23186.28623890  .00000150  00000+0  00000+0 0  9991
2 40364   0.0397 343.8163 0004510  98.8034 331.6567  1.00274687 31211
SES-9                   
1 41380U 16013A   23186.37387037 -.00000345  00000+0  00000+0 0  9996
2 41380   0.0354 292.9318 0002493 167.4536  65.5972  1.00269685 26946
SES-10                  
1 42432U 17017A   23185.98063573 -.00000271  00000+0  00000+0 0  9990
2 42432   0.0170  48.3207 0003047  55.5270 104.9995  1.00270886 22910
SES-15                  
1 42709U 17026A   23186.42607046  .00000060  00000+0  00000+0 0  9991
2 42709   0.0175  21.5869 0000617  69.7651 216.0230  1.00269338 23377
SES-11 (ECHOSTAR 105)   
1 42967U 17063A   23185.51158253 -.00000086  00000+0  00000+0 0  9997
2 42967   0.0143  24.7026 0002187  89.2400 247.5211  1.00271230 20998
SES-14                  
1 43175U 18012B   23185.55430955 -.00000275  00000+0  00000+0 0  9990
2 43175   0.0151 335.1547 0001274 127.1608 332.0346  1.00270366 20239
O3B FM15                
1 43231U 18024A   23182.48405460 -.00000010  00000+0  00000+0 0  9995
2 43231   0.0533   1.1626 0002885  93.5459 265.3256  5.00114414 97094
O3B FM16                
1 43232U 18024B   23184.53636642 -.00000014  00000+0  00000+0 0  9996
2 43232   0.0575   0.6387 0002909  96.6332 262.7608  5.00116158 97178
O3B FM14                
1 43233U 18024C   23184.37644006 -.00000013  00000+0  00000+0 0  9991
2 43233   0.0589   1.2770 0003064  97.9700 260.7874  5.00115634 97163
O3B FM13                
1 43234U 18024D   23184.43010179 -.00000013  00000+0  00000+0 0  9997
2 43234   0.0529 339.6730 0003145 103.4946 276.8680  5.00115429 97173
SES-12                  
1 43488U 18049A   23186.47186543 -.00000270  00000+0  00000+0 0  9995
2 43488   0.0165  36.8821 0000489 200.0913 311.0902  1.00269989 18600
O3B FM20                
1 44112U 19020A   23183.60356152 -.00000012  00000+0  00000+0 0  9991
2 44112   0.0500   1.0119 0003196  91.1407 267.8843  5.00115671 77594
O3B FM19                
1 44113U 19020B   23183.43065273 -.00000012  00000+0  00000+0 0  9994
2 44113   0.0378 337.1772 0004029 133.1758 249.6908  5.00115383 77576
O3B FM17                
1 44114U 19020C   23182.71130244 -.00000011  00000+0  00000+0 0  9995
2 44114   0.0623  16.7671 0002896  76.9545 266.3125  5.00115959 77549
O3B FM18                
1 44115U 19020D   23184.85653774 -.00000014  00000+0  00000+0 0  9994
2 44115   0.0497   0.5854 0002800  98.8119 260.6338  5.00115941 77643
SES-17                  
1 49332U 21095A   23186.26723694 -.00000272  00000+0  00000+0 0  9997
2 49332   0.0167  40.6723 0001492  76.1094 195.3281  1.00274651  7037
SES-22                  
1 52933U 22071A   23186.44097579  .00000088  00000+0  00000+0 0  9993
2 52933   0.0154 311.2937 0001457 142.4166 213.2171  1.00268777  3751
SES-20                  
1 53960U 22123A   23185.97334509 -.00000099  00000+0  00000+0 0  9999
2 53960   0.0332 129.2254 0002236 321.2183  79.5694  1.00268777  2720
SES-21                  
1 53961U 22123B   23185.96785372  .00000071  00000+0  00000+0 0  9996
2 53961   0.0311  25.9767 0000918  73.3194  40.9059  1.00267512  2735
O3B MPOWER F1           
1 54755U 22174A   23186.05338813 -.00000016  00000+0  00000+0 0  9999
2 54755   0.0379   8.6873 0002455 177.4025  30.0083  5.00112142 11407
O3B MPOWER F2           
1 54756U 22174B   23185.64434106 -.00000015  00000+0  00000+0 0  9995
2 54756   0.0377  14.1049 0004021 156.8461 189.0550  5.00114252 11474
SES-18                  
1 55970U 23038A   23186.34789341 -.00000101  00000+0  00000+0 0  9992
2 55970   0.0477 251.1468 0001057 282.9467 131.1422  1.00270707  1306
SES-19                  
1 55971U 23038B   23185.49276837  .00000091  00000+0  00000+0 0  9996
2 55971   0.0172  18.3823 0001910  82.6910 223.6533  1.00270970  1260
O3B MPOWER F4           
1 56367U 23059A   23177.30425901 -.00000003  00000+0  00000+0 0  9992
2 56367   3.7177 312.7707 0849760 321.8838  32.4248  5.83394353  3962
O3B MPOWER F3           
1 56368U 23059B   23178.98096272  .00000001  00000+0  00000+0 0  9990
2 56368   3.9195 311.4313 0895637 327.5229  27.2912  5.88481901  4103
